OPTICUBE 04             
1 41851U 16067D   18152.54665631 -.00000203  00000-0 -12448-4 0  9992
2 41851  97.9238 240.4666 0007977 209.3590 150.7184 14.96669557 84753
AEROCUBE 8D             
1 41852U 16067E   18152.18048212  .00000509  00000-0  50126-4 0  9995
2 41852  97.9244 239.9406 0009073 210.3567 149.7130 14.96483553 84682
AEROCUBE 8C             
1 41853U 16067F   18152.46172148  .00000824  00000-0  77895-4 0  9995
2 41853  97.9250 240.1895 0009226 209.9623 150.1071 14.96452273 84723
PROMETHEUS 2-1          
1 41854U 16067G   18152.53612095  .00000734  00000-0  69818-4 0  9990
2 41854  97.9258 240.2701 0009459 209.7560 150.3124 14.96554259 84734
PROMETHEUS 2-3          
1 41855U 16067H   18152.53872171  .00000591  00000-0  57246-4 0  9997
2 41855  97.9261 240.2767 0009593 210.5986 149.4676 14.96551886 84736
ITF-2                   
1 41932U 98067KU  18152.13350084  .00029799  00000-0  19692-3 0  9996
2 41932  51.6349  63.5170 0004786 126.7498 233.3941 15.75302910 78231
WASEDA-SAT3             
1 41933U 98067KV  18152.55354453  .00067471  00000-0  33499-3 0  9997
2 41933  51.6355  54.9268 0004523 132.9981 227.1401 15.81317955 78386
AOBA-VELOX 3            
1 41935U 98067KX  18152.31522338  .00050182  00000-0  27937-3 0  9993
2 41935  51.6371  58.6718 0004681 130.2449 229.8962 15.78927097 78417
INS-1B                  
1 41954U 17008G   18152.61781745  .00001537  00000-0  68368-4 0  9996
2 41954  97.4469 216.7129 0010784  54.9143 305.3104 15.22969322 71632
BGUSAT                  
1 41999U 17008BD  18152.60691899  .00002997  00000-0  12460-3 0  9996
2 41999  97.4510 217.7131 0010191  71.5143 288.7201 15.24529070 71051
DIDO-2                  
1 42000U 17008BE  18152.56152136  .00001220  00000-0  54593-4 0  9993
2 42000  97.4487 217.0806 0010295  71.4410 288.7944 15.23166932 71025
PEASSS                  
1 42015U 17008BV  18152.61387490  .00001440  00000-0  62421-4 0  9991
2 42015  97.4484 217.5706 0008265  78.4451 281.7714 15.23972164 71545
AL-FARABI 1             
1 42016U 17008BW  18152.61068742  .00001869  00000-0  79209-4 0  9995
2 42016  97.4492 217.7536 0008169  78.8442 281.3713 15.24376206 71670
NAYIF-1 (EO-88)         
1 42017U 17008BX  18152.60518664  .00001879  00000-0  79578-4 0  9998
2 42017  97.4490 217.7546 0008144  79.1118 281.1036 15.24399809 71699
HAVELSAT                
1 42700U 98067LH  18152.17986257  .00033826  00000-0  27522-3 0  9998
2 42700  51.6360  76.5941 0003843 162.9551 197.1576 15.70333736 59508
CXBN-2                  
1 42704U 98067LM  18152.19665118  .00032617  00000-0  27040-3 0  9996
2 42704  51.6369  77.4718 0003344 104.7801 255.3567 15.69902324 59411
ICECUBE                 
1 42705U 98067LN  18152.18027748  .00068320  00000-0  40256-3 0  9991
2 42705  51.6459  70.6821 0003719 126.4951 233.6392 15.77537750 59562
PHOENIX                 
1 42706U 98067LP  18152.18247436  .00022113  00000-0  19587-3 0  9993
2 42706  51.6362  78.1210 0002432 104.0874 256.0393 15.68524844 59399
X-CUBESAT               
1 42707U 98067LQ  18152.35653405  .00034029  00000-0  27136-3 0  9998
2 42707  51.6332  75.4630 0002766 108.0010 252.1289 15.70818033 59434
QBEE50-LTU-OC           
1 42708U 98067LR  18152.42226173  .00032793  00000-0  27064-3 0  9991
2 42708  51.6371  75.9554 0002658 107.6687 252.4601 15.70010119 59398
ALTAIR PATHFINDER       
1 42711U 98067LS  18152.41213381  .00016397  00000-0  17568-3 0  9991
2 42711  51.6369  83.4167 0004720 112.3925 247.7571 15.63980391 59004
SHARC                   
1 42712U 98067LT  18152.34893368  .00025275  00000-0  27150-3 0  9996
2 42712  51.6384  85.2990 0003599 111.8670 248.2708 15.63599550 59214
ZA-AEROSAT              
1 42713U 98067LU  18152.38926972  .00023005  00000-0  21443-3 0  9997
2 42713  51.6355  79.4907 0003497 101.0519 259.0871 15.67236215 59059
LINK                    
1 42714U 98067LV  18152.38152972  .00082168  00000-0  46702-3 0  9999
2 42714  51.6271  69.5317 0004119 107.2485 252.8967 15.78269505 59297
CSUNSAT 1               
1 42715U 98067LW  18152.35053925  .00025429  00000-0  23117-3 0  9997
2 42715  51.6365  79.2514 0004968 105.5209 254.6336 15.67784693 59058
SPACECUBE               
1 42717U 98067LY  18152.19332334  .00032256  00000-0  26688-3 0  9997
2 42717  51.6346  77.4090 0002890 149.8138 210.3027 15.69957321 58431
HOOPOE                  
1 42718U 98067LZ  18152.31539275  .00040658  00000-0  30292-3 0  9996
2 42718  51.6359  74.4772 0003057 143.3166 216.8042 15.72349304 58489
CHALLENGER              
1 42721U 98067MA  18152.15819324  .00093897  00000-0  41171-3 0  9999
2 42721  51.6294  66.5144 0005289 146.3265 213.8075 15.83840484 58275
NJUST-1                 
1 42722U 98067MB  18152.64333090  .00014361  00000-0  14087-3 0  9990
2 42722  51.6374  79.5656 0005521 153.7384 270.7422 15.66341022 58149
UNSW-ECO                
1 42723U 98067MC  18152.32286276  .00044845  00000-0  32469-3 0  9993
2 42723  51.6374  74.5553 0005055 147.3921 212.7390 15.72969419 58164
LILACSAT-1              
1 42725U 98067ME  18152.64618170  .00027367  00000-0  23971-3 0  9990
2 42725  51.6390  77.3172 0004286 146.6995 282.8938 15.68657510 58088
NSIGHT-1                
1 42726U 98067MF  18152.18524335  .00008384  00000-0  10271-3 0  9996
2 42726  51.6392  87.9537 0005263 162.3415 197.7762 15.61297791 57904
SNUSAT-1                
1 42727U 98067MG  18152.32616766  .00027923  00000-0  24536-3 0  9992
2 42727  51.6347  79.0325 0006935 125.7603 234.4039 15.68550874 57997
I-INSPIRE II            
1 42731U 98067ML  18152.38546697  .00050367  00000-0  35496-3 0  9993
2 42731  51.6344  73.4028 0006413 116.5970 243.5687 15.73541625 57960
POLYITAN-2-SAU          
1 42732U 98067MM  18152.16887697  .00024539  00000-0  19883-3 0  9992
2 42732  51.6357  77.2414 0006622 113.3584 246.8111 15.70604037 57898
SNUSAT-1B               
1 42733U 98067MN  18152.17730431  .00023311  00000-0  20054-3 0  9996
2 42733  51.6360  78.8139 0006658 115.7135 244.4550 15.69184569 57871
EXALTA-1                
1 42734U 98067MP  18152.37381339  .00049177  00000-0  33876-3 0  9992
2 42734  51.6332  73.3015 0006866 134.3728 225.7834 15.74079127 57911
BEEAGLESAT              
1 42736U 98067MR  18152.16078292  .00024564  00000-0  22190-3 0  9992
2 42736  51.6357  80.2015 0005811 151.6676 208.4638 15.67957990 57915
UCLSAT                  
1 42765U 17036A   18152.36278266  .00001510  00000-0  69445-4 0  9997
2 42765  97.4019 212.4660 0013289 127.4430 232.8017 15.21812508 52891
LITUANICASAT-2          
1 42768U 17036D   18152.48078545  .00002798  00000-0  12770-3 0  9998
2 42768  97.4029 212.1907 0017474 119.0792 241.2197 15.21308644 52179
AALTO-1                 
1 42775U 17036L   18152.10958579  .00000834  00000-0  40924-4 0  9991
2 42775  97.4012 211.7335 0015789 118.0208 242.2627 15.20722029 52059
URSA MAIOR              
1 42776U 17036M   18152.42595335  .00001125  00000-0  54007-4 0  9995
2 42776  97.4019 212.0920 0015661 117.1686 243.1148 15.20799037 52107
COMPASS 2               
1 42777U 17036N   18152.49295931  .00002052  00000-0  93550-4 0  9998
2 42777  97.4040 212.5189 0014601 119.8886 240.3802 15.21681250 52124
DIAMOND RED             
1 42783U 17036U   18152.16035118  .00001038  00000-0  49243-4 0  9991
2 42783  97.4020 212.1326 0013882 128.3136 231.9350 15.21423998 52072
PEGASUS                 
1 42784U 17036V   18152.39825589  .00001457  00000-0  67442-4 0  9992
2 42784  97.4022 212.4308 0013803 127.6214 232.6277 15.21623834 52112
DIAMOND GREEN           
1 42785U 17036W   18152.35657430  .00001310  00000-0  61307-4 0  9999
2 42785  97.4023 212.3382 0013765 128.1714 232.0764 15.21428740 52173
DIAMOND BLUE            
1 42786U 17036X   18152.35570831  .00001293  00000-0  60548-4 0  9995
2 42786  97.4022 212.3375 0013603 128.3663 231.8798 15.21428448 52091
NUDTSAT                 
1 42787U 17036Y   18152.58539030  .00002148  00000-0  96412-4 0  9996
2 42787  97.4029 212.8013 0013401 126.6692 233.5778 15.22183512 51998
SUCHAI                  
1 42788U 17036Z   18152.16101451  .00001374  00000-0  63344-4 0  9991
2 42788  97.4024 212.2890 0013419 128.2105 232.0341 15.21883296 52151
SKCUBE                  
1 42789U 17036AA  18152.35730680  .00001617  00000-0  74032-4 0  9991
2 42789  97.4021 212.4782 0013261 127.4596 232.7849 15.21851469 52103
VZLUSAT-1               
1 42790U 17036AB  18152.37770038  .00002056  00000-0  92371-4 0  9990
2 42790  97.4026 212.6047 0012935 127.4760 232.7654 15.22204215 52113
ROBUSTA-1B              
1 42792U 17036AD  18152.59042464  .00001646  00000-0  75041-4 0  9990
2 42792  97.4020 212.7668 0012823 127.4597 232.7807 15.21992000 52152
CICERO 6                
1 42793U 17036AE  18152.58312189  .00001029  00000-0  48249-4 0  9999
2 42793  97.4012 212.7611 0011939 128.0635 232.1680 15.21847266 52223
D-SAT                   
1 42794U 17036AF  18152.40544983  .00000231  00000-0  25822-4 0  9996
2 42794  97.5926 207.6568 0126348 335.4558  24.0679 14.90862987 51375
TOKI                    
1 42820U 98067MU  18152.22216894  .00024197  00000-0  22660-3 0  9999
2 42820  51.6357  82.1197 0004190  96.2123 263.9350 15.67083933 51379
MAZAALAI (NUMSAT-1)     
1 42822U 98067MW  18152.18917630  .00023103  00000-0  21896-3 0  9998
2 42822  51.6358  82.6545 0004129  99.2339 260.9124 15.66817133 51347
BRAC ONNESHA            
1 42823U 98067MX  18152.18610221  .00022927  00000-0  21651-3 0  9997
2 42823  51.6364  82.6506 0006165 118.9617 241.1998 15.66901377 51346
NIGERIAEDUSAT-1         
1 42824U 98067MY  18152.20828153  .00023658  00000-0  22490-3 0  9990
2 42824  51.6372  82.8142 0006047 118.4896 241.6710 15.66715445 51343
CORVUS BC2              
1 42846U 17042X   18152.51111657  .00000049  00000-0  10152-4 0  9998
2 42846  97.5987  55.9496 0008146 245.3551 114.6820 14.91813607 48030
